ALOS-2                  
1 39766U 14029A   26086.91193847  .00001906  00000+0  26223-3 0  9994
2 39766  97.9186 185.2439 0001921 103.2493 256.8933 14.79443258639562
YAOGAN-29               
1 41038U 15069A   26086.94436506 -.00000031  00000+0  27861-5 0  9999
2 41038  98.0124 115.4213 0000582   4.1448 355.9770 14.83012587558581
ASTRO-H (HITOMI)        
1 41337U 16012A   26086.74554232  .00002973  00000+0  17214-3 0  9990
2 41337  30.9986 240.0182 0009620 153.3747 206.7386 15.10114372554965
HXMT (HUIYAN)           
1 42758U 17034A   26086.94333253  .00005132  00000+0  25846-3 0  9993
2 42758  43.0141 275.1730 0032006 347.5784  12.4273 15.17688581485315
SAOCOM 1A               
1 43641U 18076A   26086.92085067  .00000146  00000+0  24877-4 0  9991
2 43641  97.8907 274.8362 0001443  84.1128 276.0250 14.82158328404066
H-2A R/B                
1 43682U 18084L   26086.58112162  .00019369  00000+0  45051-3 0  9997
2 43682  98.8713 307.8013 0023874 323.0369  36.9227 15.42089529408537
SAOCOM 1B               
1 46265U 20059A   26086.95208515  .00001180  00000+0  15471-3 0  9996
2 46265  97.8908 273.9648 0001551  86.3590 273.7801 14.82157688301459
CSS (TIANHE)            
1 48274U 21035A   26086.81975154  .00016258  00000+0  18751-3 0  9994
2 48274  41.4669  97.7682 0004161  40.1011 320.0134 15.61560654280445
COSMOS 2550             
1 48865U 21056A   26086.64503001 -.00000186  00000+0  16210-6 0  9997
2 48865  67.1425 346.5698 0008393 268.9304  91.0889 15.33839474266213
CZ-2C R/B               
1 52794U 22058K   26086.57098214  .00037365  00000+0  52000-3 0  9995
2 52794  50.1873 226.2169 0041515 277.4037  82.2218 15.55520683212915
CZ-2C R/B               
1 54039U 22132E   26086.74984414  .00048974  00000+0  52390-3 0  9997
2 54039  97.2963  90.6381 0017924  32.5235 327.7124 15.63535904193199
GSLV R/B                
1 54149U 22138AN  26086.70424745  .00002046  00000+0  17484-3 0  9992
2 54149  87.3863 160.3320 0024055  87.3973 273.0012 14.96886692186625
