CCSDS_OMM_VERS = 2.0
CREATION_DATE  = 
ORIGINATOR     = 

OBJECT_NAME    = ALOS-2
OBJECT_ID      = 2014-029A
CENTER_NAME    = EARTH
REF_FRAME      = TEME
TIME_SYSTEM    = UTC
MEAN_ELEMENT_THEORY = SGP/SGP4

EPOCH          = 2026-03-27T21:53:11.483808
MEAN_MOTION    = 14.79443258
ECCENTRICITY   = .00019217
INCLINATION    = 97.9186
RA_OF_ASC_NODE = 185.2439
ARG_OF_PERICENTER = 103.2493
MEAN_ANOMALY   = 256.8933

EPHEMERIS_TYPE = 0
CLASSIFICATION_TYPE = U
NORAD_CAT_ID   = 39766
ELEMENT_SET_NO = 999
REV_AT_EPOCH   = 63956
BSTAR          = .26223348E-3
MEAN_MOTION_DOT = .1906E-4
MEAN_MOTION_DDOT = 0

CCSDS_OMM_VERS = 2.0
CREATION_DATE  = 
ORIGINATOR     = 

OBJECT_NAME    = YAOGAN-29
OBJECT_ID      = 2015-069A
CENTER_NAME    = EARTH
REF_FRAME      = TEME
TIME_SYSTEM    = UTC
MEAN_ELEMENT_THEORY = SGP/SGP4

EPOCH          = 2026-03-27T22:39:53.141184
MEAN_MOTION    = 14.83012587
ECCENTRICITY   = .0000582
INCLINATION    = 98.0124
RA_OF_ASC_NODE = 115.4213
ARG_OF_PERICENTER = 4.1448
MEAN_ANOMALY   = 355.9770

EPHEMERIS_TYPE = 0
CLASSIFICATION_TYPE = U
NORAD_CAT_ID   = 41038
ELEMENT_SET_NO = 999
REV_AT_EPOCH   = 55858
BSTAR          = .2786106E-5
MEAN_MOTION_DOT = -.31E-6
MEAN_MOTION_DDOT = 0

CCSDS_OMM_VERS = 2.0
CREATION_DATE  = 
ORIGINATOR     = 

OBJECT_NAME    = ASTRO-H (HITOMI)
OBJECT_ID      = 2016-012A
CENTER_NAME    = EARTH
REF_FRAME      = TEME
TIME_SYSTEM    = UTC
MEAN_ELEMENT_THEORY = SGP/SGP4

EPOCH          = 2026-03-27T17:53:34.856448
MEAN_MOTION    = 15.10114372
ECCENTRICITY   = .00096202
INCLINATION    = 30.9986
RA_OF_ASC_NODE = 240.0182
ARG_OF_PERICENTER = 153.3747
MEAN_ANOMALY   = 206.7386

EPHEMERIS_TYPE = 0
CLASSIFICATION_TYPE = U
NORAD_CAT_ID   = 41337
ELEMENT_SET_NO = 999
REV_AT_EPOCH   = 55496
BSTAR          = .17214187E-3
MEAN_MOTION_DOT = .2973E-4
MEAN_MOTION_DDOT = 0

CCSDS_OMM_VERS = 2.0
CREATION_DATE  = 
ORIGINATOR     = 

OBJECT_NAME    = HXMT (HUIYAN)
OBJECT_ID      = 2017-034A
CENTER_NAME    = EARTH
REF_FRAME      = TEME
TIME_SYSTEM    = UTC
MEAN_ELEMENT_THEORY = SGP/SGP4

EPOCH          = 2026-03-27T22:38:23.930592
MEAN_MOTION    = 15.17688581
ECCENTRICITY   = .00320068
INCLINATION    = 43.0141
RA_OF_ASC_NODE = 275.1730
ARG_OF_PERICENTER = 347.5784
MEAN_ANOMALY   = 12.4273

EPHEMERIS_TYPE = 0
CLASSIFICATION_TYPE = U
NORAD_CAT_ID   = 42758
ELEMENT_SET_NO = 999
REV_AT_EPOCH   = 48531
BSTAR          = .2584577E-3
MEAN_MOTION_DOT = .5132E-4
MEAN_MOTION_DDOT = 0

CCSDS_OMM_VERS = 2.0
CREATION_DATE  = 
ORIGINATOR     = 

OBJECT_NAME    = SAOCOM 1A
OBJECT_ID      = 2018-076A
CENTER_NAME    = EARTH
REF_FRAME      = TEME
TIME_SYSTEM    = UTC
MEAN_ELEMENT_THEORY = SGP/SGP4

EPOCH          = 2026-03-27T22:06:01.497888
MEAN_MOTION    = 14.82158328
ECCENTRICITY   = .00014432
INCLINATION    = 97.8907
RA_OF_ASC_NODE = 274.8362
ARG_OF_PERICENTER = 84.1128
MEAN_ANOMALY   = 276.0250

EPHEMERIS_TYPE = 0
CLASSIFICATION_TYPE = U
NORAD_CAT_ID   = 43641
ELEMENT_SET_NO = 999
REV_AT_EPOCH   = 40406
BSTAR          = .24877315E-4
MEAN_MOTION_DOT = .146E-5
MEAN_MOTION_DDOT = 0

CCSDS_OMM_VERS = 2.0
CREATION_DATE  = 
ORIGINATOR     = 

OBJECT_NAME    = H-2A R/B
OBJECT_ID      = 2018-084L
CENTER_NAME    = EARTH
REF_FRAME      = TEME
TIME_SYSTEM    = UTC
MEAN_ELEMENT_THEORY = SGP/SGP4

EPOCH          = 2026-03-27T13:56:48.907968
MEAN_MOTION    = 15.42089529
ECCENTRICITY   = .0023874
INCLINATION    = 98.8713
RA_OF_ASC_NODE = 307.8013
ARG_OF_PERICENTER = 323.0369
MEAN_ANOMALY   = 36.9227

EPHEMERIS_TYPE = 0
CLASSIFICATION_TYPE = U
NORAD_CAT_ID   = 43682
ELEMENT_SET_NO = 999
REV_AT_EPOCH   = 40853
BSTAR          = .45051E-3
MEAN_MOTION_DOT = .19369E-3
MEAN_MOTION_DDOT = 0

CCSDS_OMM_VERS = 2.0
CREATION_DATE  = 
ORIGINATOR     = 

OBJECT_NAME    = SAOCOM 1B
OBJECT_ID      = 2020-059A
CENTER_NAME    = EARTH
REF_FRAME      = TEME
TIME_SYSTEM    = UTC
MEAN_ELEMENT_THEORY = SGP/SGP4

EPOCH          = 2026-03-27T22:51:00.156960
MEAN_MOTION    = 14.82157688
ECCENTRICITY   = .00015518
INCLINATION    = 97.8908
RA_OF_ASC_NODE = 273.9648
ARG_OF_PERICENTER = 86.3590
MEAN_ANOMALY   = 273.7801

EPHEMERIS_TYPE = 0
CLASSIFICATION_TYPE = U
NORAD_CAT_ID   = 46265
ELEMENT_SET_NO = 999
REV_AT_EPOCH   = 30145
BSTAR          = .15470685E-3
MEAN_MOTION_DOT = .118E-4
MEAN_MOTION_DDOT = 0

CCSDS_OMM_VERS = 2.0
CREATION_DATE  = 
ORIGINATOR     = 

OBJECT_NAME    = CSS (TIANHE)
OBJECT_ID      = 2021-035A
CENTER_NAME    = EARTH
REF_FRAME      = TEME
TIME_SYSTEM    = UTC
MEAN_ELEMENT_THEORY = SGP/SGP4

EPOCH          = 2026-03-27T19:40:26.533056
MEAN_MOTION    = 15.61560654
ECCENTRICITY   = .00041613
INCLINATION    = 41.4669
RA_OF_ASC_NODE = 97.7682
ARG_OF_PERICENTER = 40.1011
MEAN_ANOMALY   = 320.0134

EPHEMERIS_TYPE = 0
CLASSIFICATION_TYPE = U
NORAD_CAT_ID   = 48274
ELEMENT_SET_NO = 999
REV_AT_EPOCH   = 28044
BSTAR          = .18751186E-3
MEAN_MOTION_DOT = .16258E-3
MEAN_MOTION_DDOT = 0

CCSDS_OMM_VERS = 2.0
CREATION_DATE  = 
ORIGINATOR     = 

OBJECT_NAME    = COSMOS 2550
OBJECT_ID      = 2021-056A
CENTER_NAME    = EARTH
REF_FRAME      = TEME
TIME_SYSTEM    = UTC
MEAN_ELEMENT_THEORY = SGP/SGP4

EPOCH          = 2026-03-27T15:28:50.592864
MEAN_MOTION    = 15.33839474
ECCENTRICITY   = .0008393
INCLINATION    = 67.1425
RA_OF_ASC_NODE = 346.5698
ARG_OF_PERICENTER = 268.9304
MEAN_ANOMALY   = 91.0889

EPHEMERIS_TYPE = 0
CLASSIFICATION_TYPE = U
NORAD_CAT_ID   = 48865
ELEMENT_SET_NO = 999
REV_AT_EPOCH   = 26621
BSTAR          = .1621E-6
MEAN_MOTION_DOT = -.186E-5
MEAN_MOTION_DDOT = 0

CCSDS_OMM_VERS = 2.0
CREATION_DATE  = 
ORIGINATOR     = 

OBJECT_NAME    = CZ-2C R/B
OBJECT_ID      = 2022-058K
CENTER_NAME    = EARTH
REF_FRAME      = TEME
TIME_SYSTEM    = UTC
MEAN_ELEMENT_THEORY = SGP/SGP4

EPOCH          = 2026-03-27T13:42:12.856896
MEAN_MOTION    = 15.55520683
ECCENTRICITY   = .0041515
INCLINATION    = 50.1873
RA_OF_ASC_NODE = 226.2169
ARG_OF_PERICENTER = 277.4037
MEAN_ANOMALY   = 82.2218

EPHEMERIS_TYPE = 0
CLASSIFICATION_TYPE = U
NORAD_CAT_ID   = 52794
ELEMENT_SET_NO = 999
REV_AT_EPOCH   = 21291
BSTAR          = .52E-3
MEAN_MOTION_DOT = .37365E-3
MEAN_MOTION_DDOT = 0

CCSDS_OMM_VERS = 2.0
CREATION_DATE  = 
ORIGINATOR     = 

OBJECT_NAME    = CZ-2C R/B
OBJECT_ID      = 2022-132E
CENTER_NAME    = EARTH
REF_FRAME      = TEME
TIME_SYSTEM    = UTC
MEAN_ELEMENT_THEORY = SGP/SGP4

EPOCH          = 2026-03-27T17:59:46.533696
MEAN_MOTION    = 15.63535904
ECCENTRICITY   = .0017924
INCLINATION    = 97.2963
RA_OF_ASC_NODE = 90.6381
ARG_OF_PERICENTER = 32.5235
MEAN_ANOMALY   = 327.7124

EPHEMERIS_TYPE = 0
CLASSIFICATION_TYPE = U
NORAD_CAT_ID   = 54039
ELEMENT_SET_NO = 999
REV_AT_EPOCH   = 19319
BSTAR          = .52390319E-3
MEAN_MOTION_DOT = .48974E-3
MEAN_MOTION_DDOT = 0

CCSDS_OMM_VERS = 2.0
CREATION_DATE  = 
ORIGINATOR     = 

OBJECT_NAME    = GSLV R/B
OBJECT_ID      = 2022-138AN
CENTER_NAME    = EARTH
REF_FRAME      = TEME
TIME_SYSTEM    = UTC
MEAN_ELEMENT_THEORY = SGP/SGP4

EPOCH          = 2026-03-27T16:54:06.979680
MEAN_MOTION    = 14.96886692
ECCENTRICITY   = .00240554
INCLINATION    = 87.3863
RA_OF_ASC_NODE = 160.3320
ARG_OF_PERICENTER = 87.3973
MEAN_ANOMALY   = 273.0012

EPHEMERIS_TYPE = 0
CLASSIFICATION_TYPE = U
NORAD_CAT_ID   = 54149
ELEMENT_SET_NO = 999
REV_AT_EPOCH   = 18662
BSTAR          = .17484377E-3
MEAN_MOTION_DOT = .2046E-4
MEAN_MOTION_DDOT = 0

